{"type": "FeatureCollection", "features": [{"type": "Feature", "properties": {"norad_id": 28054, "name": "DMSP 5D-3 F16 (USA 172)", "group": "weather", "lat": -24.529634302760904, "lon": 21.905956702487188, "alt_km": 847.3153306655122, "timestamp": "2025-12-26T04:40:05.429397+00:00", "meta": {"OBJECT_NAME": "DMSP 5D-3 F16 (USA 172)", "OBJECT_ID": "2003-048A", "EPOCH": "2025-12-25T23:49:56.145216", "MEAN_MOTION": 14.14428759, "ECCENTRICITY": 0.00062437, "INCLINATION": 99.0038, "RA_OF_ASC_NODE": 17.5536, "ARG_OF_PERICENTER": 278.2433, "MEAN_ANOMALY": 111.5126, "EPHEMERIS_TYPE": 0, "CLASSIFICATION_TYPE": "U", "NORAD_CAT_ID": 28054, "ELEMENT_SET_NO": 999, "REV_AT_EPOCH": 14500, "BSTAR": 7.9157073e-05, "MEAN_MOTION_DOT": 1.06e-06, "MEAN_MOTION_DDOT": 0}, "tle": {"line1": "1 28054U 03048A   25359.99301094  .00000106  00000+0  79157-4 0  9992", "line2": "2 28054  99.0038  17.5536 0006243 278.2433 111.5126 14.14428759145003"}}, "geometry": {"type": "Point", "coordinates": [21.905956702487188, -24.529634302760904]}}, {"type": "Feature", "properties": {"norad_id": 28912, "name": "METEOSAT-9 (MSG-2)", "group": "weather", "lat": 4.014578854904311, "lon": -150.59242477992655, "alt_km": 35974.95668575089, "timestamp": "2025-12-26T04:40:05.429453+00:00", "meta": {"OBJECT_NAME": "METEOSAT-9 (MSG-2)", "OBJECT_ID": "2005-049B", "EPOCH": "2025-12-24T18:27:10.310976", "MEAN_MOTION": 1.00268275, "ECCENTRICITY": 0.00719695, "INCLINATION": 8.9553, "RA_OF_ASC_NODE": 55.846, "ARG_OF_PERICENTER": 282.2974, "MEAN_ANOMALY": 77.0088, "EPHEMERIS_TYPE": 0, "CLASSIFICATION_TYPE": "U", "NORAD_CAT_ID": 28912, "ELEMENT_SET_NO": 999, "REV_AT_EPOCH": 524, "BSTAR": 0, "MEAN_MOTION_DOT": 1.45e-06, "MEAN_MOTION_DDOT": 0}, "tle": {"line1": "1 28912U 05049B   25358.76886934  .00000145  00000+0  00000+0 0  9992", "line2": "2 28912   8.9553  55.8460 0071969 282.2974  77.0088  1.00268275  5240"}}, "geometry": {"type": "Point", "coordinates": [-150.59242477992655, 4.014578854904311]}}, {"type": "Feature", "properties": {"norad_id": 29522, "name": "DMSP 5D-3 F17 (USA 191)", "group": "weather", "lat": -59.53746030925629, "lon": 20.46411088355466, "alt_km": 852.639163393228, "timestamp": "2025-12-26T04:40:05.429472+00:00", "meta": {"OBJECT_NAME": "DMSP 5D-3 F17 (USA 191)", "OBJECT_ID": "2006-050A", "EPOCH": "2025-12-25T23:51:48.914496", "MEAN_MOTION": 14.14925066, "ECCENTRICITY": 0.00099768, "INCLINATION": 98.7393, "RA_OF_ASC_NODE": 5.1074, "ARG_OF_PERICENTER": 185.4741, "MEAN_ANOMALY": 174.6325, "EPHEMERIS_TYPE": 0, "CLASSIFICATION_TYPE": "U", "NORAD_CAT_ID": 29522, "ELEMENT_SET_NO": 999, "REV_AT_EPOCH": 98792, "BSTAR": 0.00010343439, "MEAN_MOTION_DOT": 1.57e-06, "MEAN_MOTION_DDOT": 0}, "tle": {"line1": "1 29522U 06050A   25359.99431614  .00000157  00000+0  10343-3 0  9998", "line2": "2 29522  98.7393   5.1074 0009976 185.4741 174.6325 14.14925066987920"}}, "geometry": {"type": "Point", "coordinates": [20.46411088355466, -59.53746030925629]}}, {"type": "Feature", "properties": {"norad_id": 32958, "name": "FENGYUN 3A", "group": "weather", "lat": -54.517000448428156, "lon": 107.07732550168798, "alt_km": 829.2901986684537, "timestamp": "2025-12-26T04:40:05.429485+00:00", "meta": {"OBJECT_NAME": "FENGYUN 3A", "OBJECT_ID": "2008-026A", "EPOCH": "2025-12-25T20:47:43.211904", "MEAN_MOTION": 14.19518678, "ECCENTRICITY": 0.00076064, "INCLINATION": 98.6714, "RA_OF_ASC_NODE": 299.1179, "ARG_OF_PERICENTER": 267.7947, "MEAN_ANOMALY": 92.2359, "EPHEMERIS_TYPE": 0, "CLASSIFICATION_TYPE": "U", "NORAD_CAT_ID": 32958, "ELEMENT_SET_NO": 999, "REV_AT_EPOCH": 91081, "BSTAR": 8.5573603e-05, "MEAN_MOTION_DOT": 1.37e-06, "MEAN_MOTION_DDOT": 0}, "tle": {"line1": "1 32958U 08026A   25359.86647236  .00000137  00000+0  85574-4 0  9992", "line2": "2 32958  98.6714 299.1179 0007606 267.7947  92.2359 14.19518678910812"}}, "geometry": {"type": "Point", "coordinates": [107.07732550168798, -54.517000448428156]}}, {"type": "Feature", "properties": {"norad_id": 35491, "name": "GOES 14", "group": "weather", "lat": -0.7597464526996125, "lon": 46.741489742184534, "alt_km": 35837.11447291274, "timestamp": "2025-12-26T04:40:05.429499+00:00", "meta": {"OBJECT_NAME": "GOES 14", "OBJECT_ID": "2009-033A", "EPOCH": "2025-12-25T15:55:40.730304", "MEAN_MOTION": 1.00097035, "ECCENTRICITY": 7.192e-05, "INCLINATION": 1.2354, "RA_OF_ASC_NODE": 85.272, "ARG_OF_PERICENTER": 193.0437, "MEAN_ANOMALY": 297.1266, "EPHEMERIS_TYPE": 0, "CLASSIFICATION_TYPE": "U", "NORAD_CAT_ID": 35491, "ELEMENT_SET_NO": 999, "REV_AT_EPOCH": 485, "BSTAR": 0, "MEAN_MOTION_DOT": 3.9e-07, "MEAN_MOTION_DDOT": 0}, "tle": {"line1": "1 35491U 09033A   25359.66366586  .00000039  00000+0  00000+0 0  9997", "line2": "2 35491   1.2354  85.2720 0000719 193.0437 297.1266  1.00097035  4852"}}, "geometry": {"type": "Point", "coordinates": [46.741489742184534, -0.7597464526996125]}}, {"type": "Feature", "properties": {"norad_id": 35951, "name": "DMSP 5D-3 F18 (USA 210)", "group": "weather", "lat": 19.924454138074225, "lon": 159.77951768712438, "alt_km": 848.7654847779067, "timestamp": "2025-12-26T04:40:05.429512+00:00", "meta": {"OBJECT_NAME": "DMSP 5D-3 F18 (USA 210)", "OBJECT_ID": "2009-057A", "EPOCH": "2025-12-25T22:49:28.112448", "MEAN_MOTION": 14.14777842, "ECCENTRICITY": 0.00116652, "INCLINATION": 98.8851, "RA_OF_ASC_NODE": 336.2867, "ARG_OF_PERICENTER": 27.7919, "MEAN_ANOMALY": 332.3875, "EPHEMERIS_TYPE": 0, "CLASSIFICATION_TYPE": "U", "NORAD_CAT_ID": 35951, "ELEMENT_SET_NO": 999, "REV_AT_EPOCH": 83509, "BSTAR": 0.00016638241, "MEAN_MOTION_DOT": 2.76e-06, "MEAN_MOTION_DDOT": 0}, "tle": {"line1": "1 35951U 09057A   25359.95101982  .00000276  00000+0  16638-3 0  9994", "line2": "2 35951  98.8851 336.2867 0011665  27.7919 332.3875 14.14777842835094"}}, "geometry": {"type": "Point", "coordinates": [159.77951768712438, 19.924454138074225]}}, {"type": "Feature", "properties": {"norad_id": 36411, "name": "EWS-G2 (GOES 15)", "group": "weather", "lat": 0.5299992642802741, "lon": -133.7274438727824, "alt_km": 35767.77471582086, "timestamp": "2025-12-26T04:40:05.429526+00:00", "meta": {"OBJECT_NAME": "EWS-G2 (GOES 15)", "OBJECT_ID": "2010-008A", "EPOCH": "2025-12-25T19:19:50.262240", "MEAN_MOTION": 1.00271116, "ECCENTRICITY": 0.00056146, "INCLINATION": 0.844, "RA_OF_ASC_NODE": 86.0667, "ARG_OF_PERICENTER": 179.3829, "MEAN_ANOMALY": 180.4208, "EPHEMERIS_TYPE": 0, "CLASSIFICATION_TYPE": "U", "NORAD_CAT_ID": 36411, "ELEMENT_SET_NO": 999, "REV_AT_EPOCH": 5790, "BSTAR": 0, "MEAN_MOTION_DOT": 6e-07, "MEAN_MOTION_DDOT": 0}, "tle": {"line1": "1 36411U 10008A   25359.80544285  .00000060  00000+0  00000+0 0  9998", "line2": "2 36411   0.8440  86.0667 0005614 179.3829 180.4208  1.00271116 57904"}}, "geometry": {"type": "Point", "coordinates": [-133.7274438727824, 0.5299992642802741]}}, {"type": "Feature", "properties": {"norad_id": 36744, "name": "COMS 1", "group": "weather", "lat": -2.5418037729920684, "lon": -66.94853288489918, "alt_km": 35783.24211195737, "timestamp": "2025-12-26T04:40:05.429539+00:00", "meta": {"OBJECT_NAME": "COMS 1", "OBJECT_ID": "2010-032A", "EPOCH": "2025-12-25T12:42:15.782976", "MEAN_MOTION": 1.00270082, "ECCENTRICITY": 8.877e-05, "INCLINATION": 4.3689, "RA_OF_ASC_NODE": 77.8525, "ARG_OF_PERICENTER": 213.8569, "MEAN_ANOMALY": 121.3153, "EPHEMERIS_TYPE": 0, "CLASSIFICATION_TYPE": "U", "NORAD_CAT_ID": 36744, "ELEMENT_SET_NO": 999, "REV_AT_EPOCH": 4934, "BSTAR": 0, "MEAN_MOTION_DOT": -3.24e-06, "MEAN_MOTION_DDOT": 0}, "tle": {"line1": "1 36744U 10032A   25359.52934934 -.00000324  00000+0  00000+0 0  9991", "line2": "2 36744   4.3689  77.8525 0000887 213.8569 121.3153  1.00270082 49343"}}, "geometry": {"type": "Point", "coordinates": [-66.94853288489918, -2.5418037729920684]}}, {"type": "Feature", "properties": {"norad_id": 37214, "name": "FENGYUN 3B", "group": "weather", "lat": 53.728049338920854, "lon": -127.27956283480151, "alt_km": 852.9593532455274, "timestamp": "2025-12-26T04:40:05.429551+00:00", "meta": {"OBJECT_NAME": "FENGYUN 3B", "OBJECT_ID": "2010-059A", "EPOCH": "2025-12-25T23:32:26.157120", "MEAN_MOTION": 14.14794003, "ECCENTRICITY": 0.00214749, "INCLINATION": 98.9886, "RA_OF_ASC_NODE": 40.0491, "ARG_OF_PERICENTER": 319.6521, "MEAN_ANOMALY": 157.9509, "EPHEMERIS_TYPE": 0, "CLASSIFICATION_TYPE": "U", "NORAD_CAT_ID": 37214, "ELEMENT_SET_NO": 999, "REV_AT_EPOCH": 78293, "BSTAR": 0.00016293176, "MEAN_MOTION_DOT": 2.69e-06, "MEAN_MOTION_DDOT": 0}, "tle": {"line1": "1 37214U 10059A   25359.98085830  .00000269  00000+0  16293-3 0  9997", "line2": "2 37214  98.9886  40.0491 0021474 319.6521 157.9509 14.14794003782938"}}, "geometry": {"type": "Point", "coordinates": [-127.27956283480151, 53.728049338920854]}}, {"type": "Feature", "properties": {"norad_id": 37849, "name": "SUOMI NPP", "group": "weather", "lat": -14.231687914257403, "lon": 115.16928211515602, "alt_km": 831.9055306296823, "timestamp": "2025-12-26T04:40:05.429562+00:00", "meta": {"OBJECT_NAME": "SUOMI NPP", "OBJECT_ID": "2011-061A", "EPOCH": "2025-12-22T15:10:21.732672", "MEAN_MOTION": 14.19516903, "ECCENTRICITY": 0.00024883, "INCLINATION": 98.7787, "RA_OF_ASC_NODE": 293.8852, "ARG_OF_PERICENTER": 103.0781, "MEAN_ANOMALY": 257.0673, "EPHEMERIS_TYPE": 0, "CLASSIFICATION_TYPE": "U", "NORAD_CAT_ID": 37849, "ELEMENT_SET_NO": 999, "REV_AT_EPOCH": 73339, "BSTAR": 6.3406935e-05, "MEAN_MOTION_DOT": 8.9e-07, "MEAN_MOTION_DDOT": 0}, "tle": {"line1": "1 37849U 11061A   25356.63219598  .00000089  00000+0  63407-4 0  9994", "line2": "2 37849  98.7787 293.8852 0002488 103.0781 257.0673 14.19516903733392"}}, "geometry": {"type": "Point", "coordinates": [115.16928211515602, -14.231687914257403]}}]}